*******************************************************************************
 Revised: September 28, 2017           Jupiter                              599
 
 PHYSICAL DATA (updated 2018-Aug-15):
  Mass x10^24 (kg)      = 1898.13+-.19    Density (g/cm^3)       =   1.326
  Equat. radius (1 bar) = 71492+-4 km     Polar radius (km)      =  66854+-10
  Vol. Mean Radius (km) = 69911+-6        Flattening             =   0.06487
  Geometric Albedo      = 0.52            Rocky core mass (Mc/M) =  0.0261
  Sid. rot. period (III)= 9h 55m 29.71 s  Sid. rot. rate (rad/s) =  0.00017585 
  Mean solar day, hrs   = ~9.9259         
  GM (km^3/s^2)         = 126686534.911   GM 1-sigma (km^3/s^2)  =  +-1.5
  Equ. grav, ge (m/s^2) = 24.79           Pol. grav, gp (m/s^2)  =  28.34
  Vis. magnitude V(1,0) = -9.40
  Vis. mag. (opposition)= -2.70           Obliquity to orbit     =  3.13 deg
  Sidereal orbit period = 11.861982204 y  Sidereal orbit period  = 4332.589 d
  Mean daily motion     = 0.0831294 deg/d Mean orbit speed, km/s = 13.0697
  Atmos. temp. (1 bar)  = 165+-5 K        Escape speed, km/s    =  59.5           
  A_roche(ice)/Rp       =  2.76           Hill's sphere rad. Rp  = 740
                                 Perihelion   Aphelion     Mean
  Solar Constant (W/m^2)         56           46           51
  Maximum Planetary IR (W/m^2)   13.7         13.4         13.6
  Minimum Planetary IR (W/m^2)   13.7         13.4         13.6
*******************************************************************************
 
 
*******************************************************************************
Ephemeris / WWW_USER Mon Aug  5 18:02:40 2019 Pasadena, USA      / Horizons    
*******************************************************************************
Target body name: Jupiter (599)                   {source: jup341}
Center body name: Earth (399)                     {source: DE431mx}
Center-site name: GEOCENTRIC
*******************************************************************************
Start time      : A.D. 2019-Jul-12 00:00:00.0000 UT      
Stop  time      : A.D. 2019-Jul-14 00:00:00.0000 UT      
Step-size       : 5 minutes
*******************************************************************************
Target pole/equ : IAU_JUPITER                     {West-longitude positive}
Target radii    : 71492.0 x 71492.0 x 66854.0 km  {Equator, meridian, pole}    
Center geodetic : 0.00000000,0.00000000,0.0000000 {E-lon(deg),Lat(deg),Alt(km)}
Center cylindric: 0.00000000,0.00000000,0.0000000 {E-lon(deg),Dxy(km),Dz(km)}
Center pole/equ : High-precision EOP model        {East-longitude positive}
Center radii    : 6378.1 x 6378.1 x 6356.8 km     {Equator, meridian, pole}    
Target primary  : Sun
Vis. interferer : MOON (R_eq= 1737.400) km        {source: DE431mx}
Rel. light bend : Sun, EARTH                      {source: DE431mx}
Rel. lght bnd GM: 1.3271E+11, 3.9860E+05 km^3/s^2                              
Atmos refraction: NO (AIRLESS)
RA format       : DEG
Time format     : CAL 
EOP file        : eop.190802.p191024                                           
EOP coverage    : DATA-BASED 1962-JAN-20 TO 2019-AUG-02. PREDICTS-> 2019-OCT-23
Units conversion: 1 au= 149597870.700 km, c= 299792.458 km/s, 1 day= 86400.0 s 
Table cut-offs 1: Elevation (-90.0deg=NO ),Airmass (>38.000=NO), Daylight (NO )
Table cut-offs 2: Solar elongation (  0.0,180.0=NO ),Local Hour Angle( 0.0=NO )
Table cut-offs 3: RA/DEC angular rate (     0.0=NO )                           
**************************************************************************************************************************************************************
 Date__(UT)__HR:MN:SC.fff     R.A._(ICRF/J2K)_DEC Ang-diam Ob-lon Ob-lat Sl-lon Sl-lat   NP.ang   NP.dist            delta      deldot    ObsEcLon    ObsEcLat
**************************************************************************************************************************************************************
$$SOE
 2019-Jul-12 09:15:00.000     254.42127 -22.16182 44.65859 189.08  -3.08 182.92  -2.94   5.7188    -20.85 4.41450688563068  14.4249002 255.8705527   0.4994501
 2019-Jul-12 09:20:00.000     254.42095 -22.16180 44.65829 192.10  -3.08 185.94  -2.94   5.7189    -20.85 4.41453581458391  14.4263098 255.8702514   0.4994395
 2019-Jul-12 09:25:00.000     254.42062 -22.16178 44.65800 195.12  -3.08 188.96  -2.94   5.7191    -20.85 4.41456474636410  14.4277195 255.8699501   0.4994289
 2019-Jul-12 09:30:00.000     254.42030 -22.16176 44.65771 198.15  -3.08 191.99  -2.94   5.7192    -20.85 4.41459368097125  14.4291292 255.8696489   0.4994183
 2019-Jul-12 09:35:00.000     254.41997 -22.16174 44.65741 201.17  -3.08 195.01  -2.94   5.7193    -20.85 4.41462261840537  14.4305389 255.8693478   0.4994077
 2019-Jul-12 09:40:00.000     254.41965 -22.16172 44.65712 204.19  -3.08 198.03  -2.94   5.7195    -20.85 4.41465155866643  14.4319485 255.8690466   0.4993971
 2019-Jul-12 09:45:00.000     254.41932 -22.16169 44.65683 207.22  -3.08 201.05  -2.94   5.7196    -20.85 4.41468050175446  14.4333582 255.8687455   0.4993865
 2019-Jul-12 09:50:00.000     254.41900 -22.16167 44.65654 210.24  -3.08 204.08  -2.94   5.7198    -20.85 4.41470944766946  14.4347679 255.8684444   0.4993759
 2019-Jul-12 09:55:00.000     254.41867 -22.16165 44.65624 213.26  -3.08 207.10  -2.94   5.7199    -20.85 4.41473839641144  14.4361776 255.8681433   0.4993653
 2019-Jul-12 10:00:00.000     254.41835 -22.16163 44.65595 216.28  -3.08 210.12  -2.94   5.7200    -20.85 4.41476734798043  14.4375873 255.8678423   0.4993547
 2019-Jul-12 10:05:00.000     254.41803 -22.16161 44.65566 219.31  -3.08 213.14  -2.94   5.7202    -20.85 4.41479630237642  14.4389970 255.8675413   0.4993441
 2019-Jul-12 10:10:00.000     254.41770 -22.16159 44.65537 222.33  -3.08 216.17  -2.94   5.7203    -20.85 4.41482525959944  14.4404067 255.8672403   0.4993335
 2019-Jul-12 10:15:00.000     254.41738 -22.16156 44.65507 225.35  -3.08 219.19  -2.94   5.7204    -20.85 4.41485421964950  14.4418164 255.8669393   0.4993229
 2019-Jul-12 10:20:00.000     254.41705 -22.16154 44.65478 228.38  -3.08 222.21  -2.94   5.7206    -20.85 4.41488318252664  14.4432262 255.8666384   0.4993123
 2019-Jul-12 10:25:00.000     254.41673 -22.16152 44.65449 231.40  -3.08 225.23  -2.94   5.7207    -20.85 4.41491214823086  14.4446359 255.8663375   0.4993017
 2019-Jul-12 10:30:00.000     254.41640 -22.16150 44.65419 234.42  -3.08 228.25  -2.94   5.7208    -20.85 4.41494111676222  14.4460457 255.8660367   0.4992911
 2019-Jul-12 10:35:00.000     254.41608 -22.16148 44.65390 237.44  -3.08 231.28  -2.94   5.7210    -20.85 4.41497008812071  14.4474554 255.8657358   0.4992805
 2019-Jul-12 10:40:00.000     254.41576 -22.16146 44.65361 240.47  -3.08 234.30  -2.94   5.7211    -20.85 4.41499906230637  14.4488652 255.8654350   0.4992699
 2019-Jul-12 10:45:00.000     254.41543 -22.16143 44.65331 243.49  -3.08 237.32  -2.94   5.7213    -20.85 4.41502803931924  14.4502750 255.8651342   0.4992593
 2019-Jul-12 10:50:00.000     254.41511 -22.16141 44.65302 246.51  -3.08 240.34  -2.94   5.7214    -20.85 4.41505701915936  14.4516849 255.8648335   0.4992487
 2019-Jul-12 10:55:00.000     254.41478 -22.16139 44.65273 249.54  -3.08 243.37  -2.94   5.7215    -20.85 4.41508600182675  14.4530947 255.8645328   0.4992381
 2019-Jul-12 11:00:00.000     254.41446 -22.16137 44.65243 252.56  -3.08 246.39  -2.94   5.7217    -20.85 4.41511498732147  14.4545046 255.8642321   0.4992275
 2019-Jul-12 11:05:00.000     254.41414 -22.16135 44.65214 255.58  -3.08 249.41  -2.94   5.7218    -20.85 4.41514397564353  14.4559145 255.8639314   0.4992169
 2019-Jul-12 11:10:00.000     254.41381 -22.16133 44.65185 258.60  -3.08 252.43  -2.94   5.7219    -20.85 4.41517296679300  14.4573244 255.8636308   0.4992063
 2019-Jul-12 11:15:00.000     254.41349 -22.16130 44.65156 261.63  -3.08 255.45  -2.94   5.7221    -20.85 4.41520196076990  14.4587343 255.8633302   0.4991957
 2019-Jul-12 11:20:00.000     254.41316 -22.16128 44.65126 264.65  -3.08 258.48  -2.94   5.7222    -20.85 4.41523095757429  14.4601442 255.8630296   0.4991851
 2019-Jul-12 11:25:00.000     254.41284 -22.16126 44.65097 267.67  -3.08 261.50  -2.94   5.7224    -20.85 4.41525995720622  14.4615542 255.8627290   0.4991745
 2019-Jul-12 11:30:00.000     254.41252 -22.16124 44.65068 270.70  -3.08 264.52  -2.94   5.7225    -20.85 4.41528895966575  14.4629642 255.8624285   0.4991639
 2019-Jul-12 11:35:00.000     254.41219 -22.16122 44.65038 273.72  -3.08 267.54  -2.94   5.7226    -20.85 4.41531796495290  14.4643742 255.8621280   0.4991533
 2019-Jul-12 11:40:00.000     254.41187 -22.16120 44.65009 276.74  -3.08 270.57  -2.94   5.7228    -20.85 4.41534697306774  14.4657843 255.8618276   0.4991427
 2019-Jul-12 11:45:00.000     254.41154 -22.16118 44.64980 279.76  -3.08 273.59  -2.94   5.7229    -20.85 4.41537598401032  14.4671944 255.8615271   0.4991321
 2019-Jul-12 11:50:00.000     254.41122 -22.16115 44.64950 282.79  -3.08 276.61  -2.94   5.7230    -20.85 4.41540499778070  14.4686045 255.8612267   0.4991215
 2019-Jul-12 11:55:00.000     254.41090 -22.16113 44.64921 285.81  -3.08 279.63  -2.94   5.7232    -20.85 4.41543401437895  14.4700146 255.8609263   0.4991108
 2019-Jul-12 12:00:00.000     254.41057 -22.16111 44.64892 288.83  -3.08 282.66  -2.94   5.7233    -20.85 4.41546303380512  14.4714248 255.8606260   0.4991002
 2019-Jul-12 12:05:00.000     254.41025 -22.16109 44.64862 291.86  -3.08 285.68  -2.94   5.7234    -20.85 4.41549205605926  14.4728350 255.8603257   0.4990896
 2019-Jul-12 12:10:00.000     254.40993 -22.16107 44.64833 294.88  -3.08 288.70  -2.94   5.7236    -20.85 4.41552108114144  14.4742452 255.8600254   0.4990790
 2019-Jul-12 12:15:00.000     254.40960 -22.16105 44.64803 297.90  -3.08 291.72  -2.94   5.7237    -20.85 4.41555010905173  14.4756555 255.8597251   0.4990684
